[{"OBJECT_NAME":"STARLINK-36846","OBJECT_ID":"2026-035R","EPOCH":"2026-03-03T04:00:01.999584","MEAN_MOTION":16.02552218,"ECCENTRICITY":0.0001231,"INCLINATION":97.2767,"RA_OF_ASC_NODE":353.9981,"ARG_OF_PERICENTER":123.177,"MEAN_ANOMALY":124.6848,"EPHEMERIS_TYPE":0,"CLASSIFICATION_TYPE":"U","NORAD_CAT_ID":67894,"ELEMENT_SET_NO":999,"REV_AT_EPOCH":270,"BSTAR":-0.0014926,"MEAN_MOTION_DOT":-0.00874009,"MEAN_MOTION_DDOT":0.00026293},{"OBJECT_NAME":"STARLINK-36866","OBJECT_ID":"2026-035S","EPOCH":"2026-03-03T04:00:01.999584","MEAN_MOTION":16.02686945,"ECCENTRICITY":0.0001018,"INCLINATION":97.2764,"RA_OF_ASC_NODE":353.9995,"ARG_OF_PERICENTER":114.9909,"MEAN_ANOMALY":136.3849,"EPHEMERIS_TYPE":0,"CLASSIFICATION_TYPE":"U","NORAD_CAT_ID":67895,"ELEMENT_SET_NO":999,"REV_AT_EPOCH":270,"BSTAR":-0.0015619,"MEAN_MOTION_DOT":-0.00921386,"MEAN_MOTION_DDOT":0.00029044},{"OBJECT_NAME":"STARLINK-36877","OBJECT_ID":"2026-035T","EPOCH":"2026-03-03T04:00:01.999584","MEAN_MOTION":16.02390916,"ECCENTRICITY":0.0001126,"INCLINATION":97.2766,"RA_OF_ASC_NODE":353.9962,"ARG_OF_PERICENTER":72.758,"MEAN_ANOMALY":171.2401,"EPHEMERIS_TYPE":0,"CLASSIFICATION_TYPE":"U","NORAD_CAT_ID":67896,"ELEMENT_SET_NO":999,"REV_AT_EPOCH":270,"BSTAR":-0.0013991,"MEAN_MOTION_DOT":-0.0081198,"MEAN_MOTION_DDOT":0.0002289},{"OBJECT_NAME":"STARLINK-36870","OBJECT_ID":"2026-035U","EPOCH":"2026-03-03T04:00:01.999584","MEAN_MOTION":16.02812244,"ECCENTRICITY":0.0001119,"INCLINATION":97.2761,"RA_OF_ASC_NODE":354.0009,"ARG_OF_PERICENTER":80.7921,"MEAN_ANOMALY":174.6329,"EPHEMERIS_TYPE":0,"CLASSIFICATION_TYPE":"U","NORAD_CAT_ID":67897,"ELEMENT_SET_NO":999,"REV_AT_EPOCH":270,"BSTAR":-0.0015914,"MEAN_MOTION_DOT":-0.00945559,"MEAN_MOTION_DDOT":0.00030518},{"OBJECT_NAME":"STARLINK-36810","OBJECT_ID":"2026-035V","EPOCH":"2026-03-03T04:00:01.999584","MEAN_MOTION":16.02918388,"ECCENTRICITY":0.0001506,"INCLINATION":97.2759,"RA_OF_ASC_NODE":354.0021,"ARG_OF_PERICENTER":136.3059,"MEAN_ANOMALY":122.3159,"EPHEMERIS_TYPE":0,"CLASSIFICATION_TYPE":"U","NORAD_CAT_ID":67898,"ELEMENT_SET_NO":999,"REV_AT_EPOCH":270,"BSTAR":-0.0015346,"MEAN_MOTION_DOT":-0.00917792,"MEAN_MOTION_DDOT":0.00028912},{"OBJECT_NAME":"STARLINK-36878","OBJECT_ID":"2026-035W","EPOCH":"2026-03-03T04:00:01.999584","MEAN_MOTION":16.03115753,"ECCENTRICITY":0.0001043,"INCLINATION":97.2756,"RA_OF_ASC_NODE":354.005,"ARG_OF_PERICENTER":82.6593,"MEAN_ANOMALY":182.282,"EPHEMERIS_TYPE":0,"CLASSIFICATION_TYPE":"U","NORAD_CAT_ID":67899,"ELEMENT_SET_NO":999,"REV_AT_EPOCH":270,"BSTAR":-0.0015761,"MEAN_MOTION_DOT":-0.00953242,"MEAN_MOTION_DDOT":0.0003109},{"OBJECT_NAME":"STARLINK-36361","OBJECT_ID":"2026-035X","EPOCH":"2026-03-03T04:00:01.999584","MEAN_MOTION":16.03233165,"ECCENTRICITY":9.53e-5,"INCLINATION":97.2756,"RA_OF_ASC_NODE":354.0064,"ARG_OF_PERICENTER":90.0775,"MEAN_ANOMALY":178.3307,"EPHEMERIS_TYPE":0,"CLASSIFICATION_TYPE":"U","NORAD_CAT_ID":67900,"ELEMENT_SET_NO":999,"REV_AT_EPOCH":270,"BSTAR":-0.001541,"MEAN_MOTION_DOT":-0.00938571,"MEAN_MOTION_DDOT":0.00030251},{"OBJECT_NAME":"STARLINK-36336","OBJECT_ID":"2026-035Y","EPOCH":"2026-03-03T04:00:01.999584","MEAN_MOTION":16.03558295,"ECCENTRICITY":0.0001153,"INCLINATION":97.2758,"RA_OF_ASC_NODE":354.0112,"ARG_OF_PERICENTER":145.3675,"MEAN_ANOMALY":133.523,"EPHEMERIS_TYPE":0,"CLASSIFICATION_TYPE":"U","NORAD_CAT_ID":67901,"ELEMENT_SET_NO":999,"REV_AT_EPOCH":275,"BSTAR":-0.0015468,"MEAN_MOTION_DOT":-0.00960261,"MEAN_MOTION_DDOT":0.00031679},{"OBJECT_NAME":"STARLINK-36876","OBJECT_ID":"2026-035Z","EPOCH":"2026-03-03T04:00:01.999584","MEAN_MOTION":16.03317693,"ECCENTRICITY":0.0001462,"INCLINATION":97.276,"RA_OF_ASC_NODE":354.0085,"ARG_OF_PERICENTER":131.827,"MEAN_ANOMALY":139.5959,"EPHEMERIS_TYPE":0,"CLASSIFICATION_TYPE":"U","NORAD_CAT_ID":67902,"ELEMENT_SET_NO":999,"REV_AT_EPOCH":270,"BSTAR":-0.0015493,"MEAN_MOTION_DOT":-0.00948375,"MEAN_MOTION_DDOT":0.00030869},{"OBJECT_NAME":"STARLINK-36257","OBJECT_ID":"2026-035AA","EPOCH":"2026-03-03T04:00:01.999584","MEAN_MOTION":16.03425614,"ECCENTRICITY":0.0001089,"INCLINATION":97.2757,"RA_OF_ASC_NODE":354.0089,"ARG_OF_PERICENTER":122.8158,"MEAN_ANOMALY":151.7697,"EPHEMERIS_TYPE":0,"CLASSIFICATION_TYPE":"U","NORAD_CAT_ID":67903,"ELEMENT_SET_NO":999,"REV_AT_EPOCH":275,"BSTAR":-0.0015433,"MEAN_MOTION_DOT":-0.00950651,"MEAN_MOTION_DDOT":0.00031046}]
